{
  "type": "FeatureCollection",
  "features": [
    {
      "type": "Feature",
      "properties": {
        "norad_id": 66909,
        "name": "SILVERSAT",
        "group": "stations",
        "lat": 41.89642068828963,
        "lon": 177.13436488973528,
        "alt_km": 408.1793533202708,
        "timestamp": "2025-12-14T20:40:30.538938+00:00",
        "meta_object_name": "SILVERSAT",
        "meta_object_id": "1998-067XV",
        "meta_epoch": "2025-12-13T19:41:48.869664",
        "meta_mean_motion": 15.51822369,
        "meta_eccentricity": 0.00043322,
        "meta_inclination": 51.6299,
        "meta_ra_of_asc_node": 137.0079,
        "meta_arg_of_pericenter": 234.1355,
        "meta_mean_anomaly": 125.9233,
        "meta_ephemeris_type": 0,
        "meta_classification_type": "U",
        "meta_norad_cat_id": 66909,
        "meta_element_set_no": 999,
        "meta_rev_at_epoch": 178,
        "meta_bstar": 0.0012407437,
        "meta_mean_motion_dot": 0.0007584,
        "meta_mean_motion_ddot": 0,
        "tle_line1": "1 66909U 98067XV  25347.82070451  .00075840  00000+0  12407-2 0  9997",
        "tle_line2": "2 66909  51.6299 137.0079 0004332 234.1355 125.9233 15.51822369  1789"
      },
      "geometry": {
        "type": "Point",
        "coordinates": [
          177.13436488973528,
          41.89642068828963
        ]
      }
    },
    {
      "type": "Feature",
      "properties": {
        "norad_id": 66910,
        "name": "1998-067XW",
        "group": "stations",
        "lat": 46.421801016331564,
        "lon": -171.81171738438545,
        "alt_km": 407.28175563539844,
        "timestamp": "2025-12-14T20:40:30.538948+00:00",
        "meta_object_name": "1998-067XW",
        "meta_object_id": "1998-067XW",
        "meta_epoch": "2025-12-14T03:23:10.619232",
        "meta_mean_motion": 15.51967036,
        "meta_eccentricity": 0.00049581,
        "meta_inclination": 51.6295,
        "meta_ra_of_asc_node": 135.3982,
        "meta_arg_of_pericenter": 216.2881,
        "meta_mean_anomaly": 143.7773,
        "meta_ephemeris_type": 0,
        "meta_classification_type": "U",
        "meta_norad_cat_id": 66910,
        "meta_element_set_no": 999,
        "meta_rev_at_epoch": 183,
        "meta_bstar": 0.0010799417,
        "meta_mean_motion_dot": 0.00066221,
        "meta_mean_motion_ddot": 0,
        "tle_line1": "1 66910U 98067XW  25348.14109513  .00066221  00000+0  10799-2 0  9992",
        "tle_line2": "2 66910  51.6295 135.3982 0004958 216.2881 143.7773 15.51967036  1834"
      },
      "geometry": {
        "type": "Point",
        "coordinates": [
          -171.81171738438545,
          46.421801016331564
        ]
      }
    },
    {
      "type": "Feature",
      "properties": {
        "norad_id": 66911,
        "name": "1998-067XX",
        "group": "stations",
        "lat": 48.79795168982399,
        "lon": -163.3755977627459,
        "alt_km": 405.72833812917725,
        "timestamp": "2025-12-14T20:40:30.538958+00:00",
        "meta_object_name": "1998-067XX",
        "meta_object_id": "1998-067XX",
        "meta_epoch": "2025-12-14T03:21:47.573280",
        "meta_mean_motion": 15.52259497,
        "meta_eccentricity": 0.0004664,
        "meta_inclination": 51.6298,
        "meta_ra_of_asc_node": 135.3916,
        "meta_arg_of_pericenter": 217.9466,
        "meta_mean_anomaly": 142.1196,
        "meta_ephemeris_type": 0,
        "meta_classification_type": "U",
        "meta_norad_cat_id": 66911,
        "meta_element_set_no": 999,
        "meta_rev_at_epoch": 182,
        "meta_bstar": 0.0012814197,
        "meta_mean_motion_dot": 0.00079628,
        "meta_mean_motion_ddot": 0,
        "tle_line1": "1 66911U 98067XX  25348.14013395  .00079628  00000+0  12814-2 0  9990",
        "tle_line2": "2 66911  51.6298 135.3916 0004664 217.9466 142.1196 15.52259497  1823"
      },
      "geometry": {
        "type": "Point",
        "coordinates": [
          -163.3755977627459,
          48.79795168982399
        ]
      }
    },
    {
      "type": "Feature",
      "properties": {
        "norad_id": 66912,
        "name": "1998-067XY",
        "group": "stations",
        "lat": 33.644126043615515,
        "lon": 163.68507010982833,
        "alt_km": 411.2213530162362,
        "timestamp": "2025-12-14T20:40:30.538968+00:00",
        "meta_object_name": "1998-067XY",
        "meta_object_id": "1998-067XY",
        "meta_epoch": "2025-12-14T03:28:32.818656",
        "meta_mean_motion": 15.51307028,
        "meta_eccentricity": 0.00043936,
        "meta_inclination": 51.6302,
        "meta_ra_of_asc_node": 135.4229,
        "meta_arg_of_pericenter": 231.726,
        "meta_mean_anomaly": 128.3335,
        "meta_ephemeris_type": 0,
        "meta_classification_type": "U",
        "meta_norad_cat_id": 66912,
        "meta_element_set_no": 999,
        "meta_rev_at_epoch": 182,
        "meta_bstar": 0.00091761575,
        "meta_mean_motion_dot": 0.00054792,
        "meta_mean_motion_ddot": 0,
        "tle_line1": "1 66912U 98067XY  25348.14482429  .00054792  00000+0  91762-3 0  9994",
        "tle_line2": "2 66912  51.6302 135.4229 0004393 231.7260 128.3335 15.51307028  1827"
      },
      "geometry": {
        "type": "Point",
        "coordinates": [
          163.68507010982833,
          33.644126043615515
        ]
      }
    }
  ]
}